[{"OBJECT_NAME":"TIANMU-1 08","OBJECT_ID":"2023-101B","EPOCH":"2026-03-07T00:03:25.475616","MEAN_MOTION":15.29204229,"ECCENTRICITY":0.00063808,"INCLINATION":97.2717,"RA_OF_ASC_NODE":118.7901,"ARG_OF_PERICENTER":134.2174,"MEAN_ANOMALY":225.9592,"EPHEMERIS_TYPE":0,"CLASSIFICATION_TYPE":"U","NORAD_CAT_ID":57400,"ELEMENT_SET_NO":999,"REV_AT_EPOCH":14602,"BSTAR":1.4774513e-5,"MEAN_MOTION_DOT":3.46e-6,"MEAN_MOTION_DDOT":0},{"OBJECT_NAME":"STARLINK-30552","OBJECT_ID":"2023-153J","EPOCH":"2026-03-09T22:00:01.999584","MEAN_MOTION":15.2672356,"ECCENTRICITY":0.00011544,"INCLINATION":43.0006,"RA_OF_ASC_NODE":65.8896,"ARG_OF_PERICENTER":264.2372,"MEAN_ANOMALY":312.9153,"EPHEMERIS_TYPE":0,"CLASSIFICATION_TYPE":"U","NORAD_CAT_ID":57999,"ELEMENT_SET_NO":999,"REV_AT_EPOCH":578,"BSTAR":0.0013314841,"MEAN_MOTION_DOT":0.0003561,"MEAN_MOTION_DDOT":0}]
